{
    "links": {
        "self": "http://www.neowsapp.com/rest/v1/neo/3468532?api_key=iIulBulltgU6a56xZRHN4H3l9WmuAYTsLGpBGhQ2"
    },
    "id": "3468532",
    "neo_reference_id": "3468532",
    "name": "(2009 SR104)",
    "designation": "2009 SR104",
    "nasa_jpl_url": "http://ssd.jpl.nasa.gov/sbdb.cgi?sstr=3468532",
    "absolute_magnitude_h": 25.4,
    "estimated_diameter": {
        "kilometers": {
            "estimated_diameter_min": 0.022108281,
            "estimated_diameter_max": 0.0494356193
        },
        "meters": {
            "estimated_diameter_min": 22.1082810359,
            "estimated_diameter_max": 49.435619262
        },
        "miles": {
            "estimated_diameter_min": 0.0137374447,
            "estimated_diameter_max": 0.0307178602
        },
        "feet": {
            "estimated_diameter_min": 72.5337327539,
            "estimated_diameter_max": 162.1903570994
        }
    },
    "is_potentially_hazardous_asteroid": false,
    "close_approach_data": [
        {
            "close_approach_date": "2009-09-20",
            "close_approach_date_full": "2009-Sep-20 18:26",
            "epoch_date_close_approach": 1253471160000,
            "relative_velocity": {
                "kilometers_per_second": "12.4648162586",
                "kilometers_per_hour": "44873.3385310154",
                "miles_per_hour": "27882.5474888968"
            },
            "miss_distance": {
                "astronomical": "0.0474635262",
                "lunar": "18.4633116918",
                "kilometers": "7100442.422209194",
                "miles": "4412010.3335231172"
            },
            "orbiting_body": "Earth"
        }
    ],
    "orbital_data": {
        "orbit_id": "7",
        "orbit_determination_date": "2017-04-06 08:59:47",
        "first_observation_date": "2009-09-26",
        "last_observation_date": "2009-09-30",
        "data_arc_in_days": 4,
        "observations_used": 34,
        "orbit_uncertainty": "8",
        "minimum_orbit_intersection": ".0468014",
        "jupiter_tisserand_invariant": "3.465",
        "epoch_osculation": "2455101.5",
        "eccentricity": ".5497030846388506",
        "semi_major_axis": "2.151728822436552",
        "inclination": "13.07365909188349",
        "ascending_node_longitude": "5.378512474472123",
        "orbital_period": "1152.868393129126",
        "perihelion_distance": ".9689168514368574",
        "perihelion_argument": "316.2326408323323",
        "aphelion_distance": "3.334540793436246",
        "perihelion_time": "2455066.300783862804",
        "mean_anomaly": "10.99146952497923",
        "mean_motion": ".3122646107270621",
        "equinox": "J2000",
        "orbit_class": {
            "orbit_class_type": "APO",
            "orbit_class_description": "Near-Earth asteroid orbits which cross the Earth’s orbit similar to that of 1862 Apollo",
            "orbit_class_range": "a (semi-major axis) > 1.0 AU; q (perihelion) < 1.017 AU"
        }
    },
    "is_sentry_object": false
}